GLOBALSTAR M075         
1 37192U 10054E   25187.87605733 -.00000103  00000+0  55304-5 0  9990
2 37192  51.9941 121.5883 0000459  41.5793 359.0322 12.62265944678868
GLOBALSTAR M073         
1 37193U 10054F   25187.10867112 -.00000100  00000+0  22516-4 0  9993
2 37193  52.0074  37.7580 0000913  66.9589  84.9971 12.62272328680220
GLOBALSTAR M083         
1 37739U 11033A   25187.58024134 -.00000093  00000+0  60746-4 0  9996
2 37739  51.9880 345.0294 0000648 101.8523 332.7085 12.62259699649308
GLOBALSTAR M088         
1 37740U 11033B   25187.65238616 -.00000081  00000+0  12709-3 0  9990
2 37740  52.0204 250.3996 0000481 152.9562  10.4427 12.62266480644855
GLOBALSTAR M091         
1 37741U 11033C   25187.50432461 -.00000074  00000+0  16496-3 0  9998
2 37741  51.9968 214.3239 0000279 227.5842 283.1866 12.62269232645626
GLOBALSTAR M085         
1 37742U 11033D   25187.41425862 -.00000092  00000+0  67645-4 0  9999
2 37742  51.9843 165.6172 0000222 322.1701 199.7016 12.62269661646128
GLOBALSTAR M081         
1 37743U 11033E   25187.44226773 -.00000085  00000+0  10394-3 0  9993
2 37743  51.9935 168.3333 0000345 350.8887 176.8103 12.62267056646274
GLOBALSTAR M089         
1 37744U 11033F   25187.23957612 -.00000107  00000+0 -20092-4 0  9997
2 37744  51.9922 123.1728 0000695  55.0815  92.3555 12.62265182647093
